#dP2024  1 23  0  0  0.00000000      97 __u+U IGS20 FIT  IAC
## 2298 172800.00000000   900.00000000 60332 0.0000000000000
+  119   C06C07C08C09C10C11C12C13C14C16C19C20C21C22C23C24C25
+        C26C27C28C29C30C32C33C34C35C36C37C38C39C40C41C42C43
+        C44C45C46E02E03E04E05E07E08E09E10E11E12E13E14E15E18
+        E19E21E24E25E26E27E30E31E33E34E36G01G02G03G04G05G06
+        G07G08G09G10G11G12G13G14G15G16G17G18G19G20G21G22G23
+        G24G25G26G28G29G30G31G32J02J03J04R01R02R03R04R05R07
+        R08R09R11R12R13R14R15R16R17R18R19R20R21R22R24R25R26
++         7  7  7  7  7  7  7  7  7  7  5  5  6  6  5  6  5
++         6  6  5  5  6  6  6  6  6  5  5  6  6  6  6  6  5
++         6  6  5  4  4  4  4  4  4  4  4  4  4  4  4  4  4
++         4  4  4  4  4  4  4  4  4  4  4  3  3  3  3  3  3
++         3  4  3  3  3  3  3  3  4  3  3  3  3  3  4  3  3
++         3  3  3  3  4  3  3  3  9  9  9  8  6  6  6  6  6
++         6  7  7  6  7  7  7  7  7  7  8  8  6  6  6  7  8
%c M  cc GPS ccc cccc cccc cccc cccc ccccc ccccc ccccc ccccc
%c cc cc ccc ccc cccc cccc cccc cccc ccccc ccccc ccccc ccccc
%f  1.2500000  1.025000000  0.00000000000  0.000000000000000
%f  0.0000000  0.000000000  0.00000000000  0.000000000000000
%i    0    0    0    0      0      0      0      0         0
%i    0    0    0    0      0      0      0      0         0
/* INFORMATION & ANALYSIS CENTER (IAC)            FINAL DATA
/* S/V CLOCKS ARE ALIGNED TO GNSS TIME                      
/* G:C1WC2W R:C1PC2P E:C1XC5X C:C2IC6I J:C1CC2S             
/* PCV:IGS20_2290 OL/AL:FES2004  NONE     YN ORB:CoN CLK:CoN
*  2024 01 23 13  0  0.00000000
PC06  -4403.899912  25673.726546 -33068.370053     65.233862
PC07 -16320.160375  32918.434495  20584.699942   -683.686345
PC08  -6147.438712  40722.189276   9536.945448     92.245352
PC09   5523.389809  29530.278086 -28889.859257   -391.288675
PC10  -9172.672151  32683.776942  25012.381502    114.643855
PC11  -1053.208781  15705.702599  23116.928468    372.807306
PC12 -20256.844591   6643.786349  18052.655449    788.589485
PC13  -1027.499592  42249.789406   2256.745321    410.393173
PC14  -9298.194002  22488.496866 -13595.592487     29.133170
PC16  -4955.178627  24687.440544 -33492.597959   -297.670720
PC19    492.711548 -19572.287020  19919.394219   -934.505264
PC20  15578.867295 -22154.361578   6798.608372    -92.629028
PC21 -22598.151924  11429.259372  11716.014453   -963.682380
PC22 -15748.448649  -5607.282888  22340.006511   -136.969525
PC23  15693.112345  18026.794454  14405.730585   -787.333961
PC24  -7381.905987  20626.680189 -17324.568703    816.555251
PC25   6897.607613  27010.925443  -1513.904346    308.662603
PC26 -16106.900038   3020.857095 -22607.424050   -238.796332
PC27  25516.160734  -1157.853324 -11241.010671    260.814965
PC28  25567.901108  10246.217857   4481.075151    198.015538
PC29  -9781.198447 -16733.890026 -20080.330897    232.005022
PC30  12072.124808 -12804.755129 -21656.781729    -17.619027
PC32  22508.785133 -11570.316280 -11753.086369   -557.358610
PC33   -440.635129  19618.208482 -19831.173330   -944.345310
PC34 -10520.914270  13492.483399  22040.422248    353.405672
PC35 -25933.744009  -9330.954556  -4520.114100    450.649734
PC36  -5856.618862 -27198.172669   2094.333497    -41.874413
PC37  16315.908609  -1993.925376  22553.745818   -932.690246
PC38 -10513.384582  37233.572136  16968.413864    132.256375
PC39 -11813.486064  20964.118549 -34566.994216     -6.783831
PC40 -24321.508406  27606.639146  20332.292030    -53.315518
PC41  15245.050885   6264.858939 -22465.168818   -882.243564
PC42 -16596.038157  21797.627193  -5196.029363   -462.259668
PC43   8713.480369  16892.272551  20416.804637     57.541102
PC44 -25580.733791   2044.477387  10993.737339    362.470482
PC45 -15679.480359 -17769.202182 -14726.389304    -65.161206
PC46   6697.045486 -21264.773620  16743.839905   -117.941343
PE02  -4060.322526 -24105.934809 -16686.819152     97.407594
PE03 -10507.564724 -14576.470869  23516.272819    -88.919508
PE04  26756.154271   3106.212267 -12265.401954   -310.293925
PE05  11633.533816 -17406.913199  20925.485732   4713.074124
PE07 -27328.868730   9837.821671  -5685.656526    -99.904478
PE08 -26420.091390  -3480.990814  12876.696077   -212.460078
PE09  27387.930832  -9752.878837   5592.287452   -309.822990
PE10  21780.928913   5738.583777 -19203.639537   -596.339355
PE11  16684.672420  -4638.033170 -24004.539384   3275.585273
PE12  23064.971270  14094.289147 -12034.663814   -875.114119
PE13 -17087.953571   3910.957944  23863.410620    -19.978083
PE14 -23940.546251  -1701.650221  -6583.261082     18.671556
PE15 -23051.356955 -14527.511968  11591.102483    -81.750081
PE18  30674.171234  -7857.050655  -3905.029377    243.519357
PE19   7896.630437  15329.037912 -24052.809722   -756.866631
PE21  -9351.418955  28088.903297    -58.370800   -575.320253
PE24  18070.645528 -15342.216693  17688.198492   -557.875499
PE25   9585.600415 -27995.815812    423.102147     -0.116759
PE26   -762.533718  20236.631135  21599.034615    347.599320
PE27 -17932.173451  15831.160049 -17450.838283   -256.484983
PE30 -15792.600384  -5959.339180 -24332.471066   -847.720001
PE31  15841.289210   5634.652310  24360.218874    -14.385752
PE33  15018.100765  24273.786059   7850.050245      6.423312
PE34 -15461.617404 -24160.973918  -7295.115885    -90.576466
PE36   1219.687239 -19777.946009 -21983.360329   -175.796492
PG01 -20577.795263 -10238.702473  13261.615417    166.948896
PG02 -21951.553030 -13729.472127   6979.257421   -496.610780
PG03 -13645.256950  -5474.440989  21982.120031    145.431916
PG04 -24516.105933  -2558.981250  10077.799945    273.376098
PG05   8685.848339  17024.407123 -18581.360453   -159.040685
PG06    290.786448  18821.200823  18763.865492    434.526269
PG07 -16624.877579   3123.981056 -20101.262283    -44.331924
PG08 -19379.076212  -7395.986495 -16913.517626   -163.487801
PG09 -25439.528820   7561.658985  -1773.659841     68.108358
PG10  10696.291480 -23629.770060  -4634.358762    -70.457948
PG11   9832.735891  22607.682543   9970.985264   -550.292473
PG12  13550.272485   6575.143534  21594.594231   -470.755048
PG13  10011.207946  13494.404812 -20824.709571    618.640339
PG14 -13497.196717  21280.406943  -8067.186609    306.355981
PG15  19841.130052   5996.085072 -17210.560546    120.167702
PG16  -2256.440117 -21806.169965 -14991.419059   -378.238383
PG17 -18499.008635  12971.092177  14509.926828    719.158317
PG18  15310.249676  -4466.849904 -21254.255536   -538.924649
PG19  -9635.510188  14638.202210  19657.933795    430.518772
PG20   1769.879791  25584.998576  -7180.112234    390.282428
PG21 -21033.662002 -16979.419974   2329.327960    137.456450
PG22 -10186.935386  24700.658629    195.451195     43.383549
PG23  15229.542074 -14979.992196 -15639.807942    141.080044
PG24  21499.566271  15311.373358   4135.534957   -419.100260
PG25  16399.914326  -6261.267979  19513.840995    486.235639
PG26   2479.862075 -25852.019132  -4669.903872    197.597083
PG28   2035.907476 -17623.843578  19743.562114   -107.514211
PG29  26271.519311  -4221.507874   -664.284938   -608.280686
PG30  -8603.142374  13565.613797 -20996.564944   -441.906829
PG31  -5788.406674 -21543.868957  13890.701029   -227.465724
PG32  14568.798275 -15094.598338  16358.422313   -607.122911
PJ02 -26081.638262  31008.623379  -6949.490581     -1.383889
PJ03 -25874.870646  23062.698351  29136.343881     -0.190248
PJ04 -31570.852068  27733.830576   1687.202047     77.795142
PR01  13215.268238   3033.785674 -21604.939064     75.283023
PR02  21664.884828  -9315.074559  -9587.240421    -22.431813
PR03  17580.839400 -16694.165842   7876.925304     93.156166
PR04   4265.273826 -14444.878429  20612.192125    220.337342
PR05 -11526.677141  -4656.975523  22290.913151    125.770419
PR07 -17215.811551  16788.299879  -8550.010222     74.179450
PR08  -3978.372729  14483.210730 -20567.276084    -74.138941
PR09 -11091.384874   2636.626236 -22802.897569    165.944400
PR11   2110.418028  25402.677628   -727.007906     36.694074
PR12   9675.039162  16377.875326  17021.016786     35.922696
PR13  11107.831669     95.467669  22940.710465    -43.595040
PR14   5718.464136 -19405.774263  15550.831731     25.958577
PR15  -2606.054456 -25365.256566   -741.380083     82.828198
PR16  -9574.644303 -16609.259511 -16841.995683     22.676734
PR17   8848.332374  -7292.875778 -22775.777531     54.926360
PR18  -7884.836107 -13881.208042 -19893.459097    123.608865
PR19 -19286.548690 -14442.558788  -8370.074615   -263.122780
PR20 -21665.307080  -5254.676802  12452.172602   -107.214084
PR21  -8458.705705   7396.110150  22902.712555    -71.186278
PR22   8238.972895  14624.471241  19231.175777    104.531768
PR24  21738.957504   3789.144162 -12782.841824    -41.022850
PR25  -9144.131250   7285.541879  22677.986207     56.158990
PR26  -4635.929264  14820.174506 -20208.609669   -202.051860
EOF
